0 COSMOS 595
1 06852U 73069H   13282.72570944  .00000000  00000-0  10336-3 0  6601
2 06852 073.9987 134.2912 0056222 287.8648 136.3285 12.55416329834212
0 COSMOS 595
1 06852U 73069H   13287.05174104  .00000012  00000-0  17570-3 0  6622
2 06852 073.9981 128.4730 0056225 281.3897 247.7467 12.55416759834752
0 COSMOS 595
1 06852U 73069H   13289.42242566 -.00000019  00000-0 -13929-4 0  6638
2 06852 073.9981 125.2844 0056223 277.8426 162.0117 12.55417074835055
0 COSMOS 595
1 06852U 73069H   13291.49574494 -.00000026  00000-0 -57639-4 0  6641
2 06852 073.9983 122.4957 0056224 274.7330 172.3497 12.55417142835312
0 COSMOS 595
1 06852U 73069H   13293.81655425 -.00000011  00000-0  36795-4 0  6657
2 06852 073.9984 119.3742 0056227 271.2541 221.2152 12.55416894835606
0 COSMOS 595
1 06852U 73069H   13295.88213429  .00000007  00000-0  14386-3 0  6666
2 06852 073.9985 116.5961 0056222 268.1552 196.5766 12.55416688835865
